{
    "links": {
        "self": "http://www.neowsapp.com/rest/v1/neo/3472552?api_key=iIulBulltgU6a56xZRHN4H3l9WmuAYTsLGpBGhQ2"
    },
    "id": "3472552",
    "neo_reference_id": "3472552",
    "name": "(2009 UM28)",
    "designation": "2009 UM28",
    "nasa_jpl_url": "http://ssd.jpl.nasa.gov/sbdb.cgi?sstr=3472552",
    "absolute_magnitude_h": 23.6,
    "estimated_diameter": {
        "kilometers": {
            "estimated_diameter_min": 0.0506471459,
            "estimated_diameter_max": 0.1132504611
        },
        "meters": {
            "estimated_diameter_min": 50.6471458835,
            "estimated_diameter_max": 113.2504610618
        },
        "miles": {
            "estimated_diameter_min": 0.0314706677,
            "estimated_diameter_max": 0.0703705522
        },
        "feet": {
            "estimated_diameter_min": 166.1651821003,
            "estimated_diameter_max": 371.5566426699
        }
    },
    "is_potentially_hazardous_asteroid": false,
    "close_approach_data": [
        {
            "close_approach_date": "2009-11-02",
            "close_approach_date_full": "2009-Nov-02 10:38",
            "epoch_date_close_approach": 1257158280000,
            "relative_velocity": {
                "kilometers_per_second": "6.6091822267",
                "kilometers_per_hour": "23793.0560161773",
                "miles_per_hour": "14784.0797229409"
            },
            "miss_distance": {
                "astronomical": "0.0903358977",
                "lunar": "35.1406642053",
                "kilometers": "13514057.880457899",
                "miles": "8397246.1814370462"
            },
            "orbiting_body": "Earth"
        }
    ],
    "orbital_data": {
        "orbit_id": "8",
        "orbit_determination_date": "2017-04-06 08:59:21",
        "first_observation_date": "2009-10-26",
        "last_observation_date": "2009-11-06",
        "data_arc_in_days": 11,
        "observations_used": 39,
        "orbit_uncertainty": "8",
        "minimum_orbit_intersection": ".0830184",
        "jupiter_tisserand_invariant": "3.824",
        "epoch_osculation": "2455132.5",
        "eccentricity": ".4326825292386339",
        "semi_major_axis": "1.892696579661021",
        "inclination": "8.80251384437118",
        "ascending_node_longitude": "32.76117643881584",
        "orbital_period": "951.0862932845957",
        "perihelion_distance": "1.073759836491979",
        "perihelion_argument": "9.660824459346934",
        "aphelion_distance": "2.711633322830063",
        "perihelion_time": "2455141.925826242841",
        "mean_anomaly": "356.4321876244227",
        "mean_motion": ".3785145496700754",
        "equinox": "J2000",
        "orbit_class": {
            "orbit_class_type": "AMO",
            "orbit_class_description": "Near-Earth asteroid orbits similar to that of 1221 Amor",
            "orbit_class_range": "1.017 AU < q (perihelion) < 1.3 AU"
        }
    },
    "is_sentry_object": false
}